METHANESAT              
1 59101U 24043D   25241.91487518  .00004216  00000+0  38342-3 0  9991
2 59101  97.8097   7.6707 0009394 262.2585  97.7570 14.95730725 81074
GOSAT-GW (IBUKI GW)     
1 64694U 25141A   25241.17022475  .00001056  00000+0  19451-3 0  9998
2 64694  98.0264 178.6901 0001390  85.3380 274.7984 14.67576061  9016
GHGSAT-C1               
1 46278U 20061G   25242.25145841  .00024239  00000+0  39112-3 0  9999
2 46278  97.2440 316.5517 0002736  63.5745 296.5789 15.52894275278079
GHGSAT-C12              
1 64529U 25135B   25241.88417433  .00005668  00000+0  28683-3 0  9998
2 64529  97.4527 355.2889 0006601 105.8313 254.3649 15.17391607 10606
GHGSAT-C13              
1 64548U 25135W   25241.83714941  .00004319  00000+0  21384-3 0  9991
2 64548  97.4553 355.3700 0002544  72.6412 287.5101 15.18307319 10601
GHGSAT-C2               
1 47509U 21006DA  25242.07693671  .00008235  00000+0  25920-3 0  9996
2 47509  97.2615 289.4035 0007240 126.8112 233.3796 15.33165504255178
GHGSAT-C3               
1 52737U 22057F   25242.31924741  .00010055  00000+0  35690-3 0  9992
2 52737  97.6220  13.8980 0007849  75.7858 284.4252 15.29227954181002
GHGSAT-C4               
1 52746U 22057Q   25242.33767420  .00009272  00000+0  32946-3 0  9993
2 52746  97.6149  13.0381 0007922  63.1753 297.0296 15.29217961181012
GHGSAT-C5               
1 52744U 22057N   25242.28882259  .00009473  00000+0  33658-3 0  9997
2 52744  97.6308  15.1029 0008810  72.1056 288.1143 15.29206835181001
GHGSAT-C6               
1 56204U 23054AC  25242.27350829  .00016540  00000+0  37430-3 0  9997
2 56204  97.3211 143.7107 0009791  35.3082 324.8813 15.43161640133447
GHGSAT-C7               
1 56209U 23054AH  25242.24066020  .00013103  00000+0  30648-3 0  9992
2 56209  97.3172 143.1607 0009657  27.7469 332.4292 15.42226326133439
GHGSAT-C8               
1 56186U 23054J   25242.24785878  .00015049  00000+0  34082-3 0  9992
2 56186  97.3180 143.1560 0007898  56.6662 303.5341 15.43176769133420
SENTINEL-5P             
1 42969U 17064A   25242.09587150  .00000106  00000+0  71014-4 0  9991
2 42969  98.7605 181.7012 0001108  73.6763 286.4535 14.19541413408265
ENMAP                   
1 52159U 22033C   25242.33911641  .00000792  00000+0  12540-3 0  9997
2 52159  97.9784 323.7622 0001295  90.2202 269.9155 14.74957770183780
PRISMA                  
1 44072U 19015A   25242.33165639  .00001385  00000+0  17422-3 0  9999
2 44072  97.8702 316.2825 0001398  92.8279 267.3095 14.83656714348920
SENTINEL-2A             
1 40697U 15028A   25242.30558291  .00000203  00000+0  94191-4 0  9992
2 40697  98.5645 316.3230 0001136  96.8985 263.2328 14.30818942532139
SENTINEL-2B             
1 42063U 17013A   25242.29843065  .00000193  00000+0  90280-4 0  9994
2 42063  98.5647 316.2593 0001217  93.4822 266.6500 14.30822313443041
SENTINEL-2C             
1 60989U 24157A   25242.12381581  .00000169  00000+0  81259-4 0  9999
2 60989  98.5637 316.1575 0001212  92.5206 267.6116 14.30821090 51362
LANDSAT 8               
1 39084U 13008A   25242.14122336  .00000458  00000+0  11185-3 0  9998
2 39084  98.2199 311.6848 0001227  92.9085 267.2254 14.57099234655514
LANDSAT 9               
1 49260U 21088A   25242.10692036  .00000537  00000+0  12928-3 0  9991
2 49260  98.2221 311.6605 0001148  93.0781 267.0548 14.57095394208617
